#dP2021  5 21  0  0  0.00000000      97 __u+U IGS14 FIT  IAC
## 2158 432000.00000000   900.00000000 59355 0.0000000000000
+  122   C01C02C03C04C05C06C07C08C09C10C11C12C13C14C16C19C20
+        C21C22C23C24C25C26C27C28C29C30C32C33C34C35C36C37C38
+        C39C40C41C42C43C44C45C46C60E01E02E03E04E05E07E08E09
+        E11E12E13E14E15E18E19E21E24E25E26E27E30E31E33E36G01
+        G02G03G04G05G06G07G08G09G10G12G13G14G15G16G17G18G19
+        G20G21G22G23G24G25G26G27G29G30G31G32J01J02J03J07R01
+        R02R03R04R05R07R08R09R11R12R13R14R15R16R17R18R19R20
+        R21R22R24  0  0  0  0  0  0  0  0  0  0  0  0  0  0
++        13 12 13 13 13  9  9  9  8  8  8  8  9  9  9  7  7
++         7  7  7  7  7  7  7  7  7  7  7  8  7  7  7  7 11
++         8  8  8  8  7  7  7  7 13  4  4  4  4  4  4  4  4
++         4  4  4  5  4  5  4  4  4  4  4  4  4  4  5  4  4
++         3  3  3  3  3  3  3  3  3  3  3  3  3  3  3  3  4
++         3  3  4  3  3  3  3  3  3  3  3  4  8  8  8 13  7
++         6  6  5  5  5  5  6  7  5  7  5  5  7  5  5  7  7
++         5  7  6  0  0  0  0  0  0  0  0  0  0  0  0  0  0
%c M  cc GPS ccc cccc cccc cccc cccc ccccc ccccc ccccc ccccc
%c cc cc ccc ccc cccc cccc cccc cccc ccccc ccccc ccccc ccccc
%f  1.2500000  1.025000000  0.00000000000  0.000000000000000
%f  0.0000000  0.000000000  0.00000000000  0.000000000000000
%i    0    0    0    0      0      0      0      0         0
%i    0    0    0    0      0      0      0      0         0
/* INFORMATION & ANALYSIS CENTER (IAC)            FINAL DATA
/* S/V CLOCKS ARE ALIGNED TO GNSS TIME                      
/* G:C1WC2W R:C1PC2P E:C1XC5X C:C2IC6I J:C1CC2S             
/* PCV:IGS14_2148 OL/AL:FES2004  NONE     YN ORB:CoN CLK:CoN
*  2021 05 21 23  0  0.00000000
PC01 -34344.023220  24501.246285    122.027029 999999.999999
PC02   4438.213486  41906.188724   -968.465632    659.317998
PC03 -14732.365955  39501.131071  -1200.742522   -278.284866
PC04 -39621.548890  14445.337781   -192.309078 999999.999999
PC05  21942.252553  36011.875143   -651.585521   -126.795936
PC06 -23268.631428  33489.465858  10125.712508    411.474308
PC07  -9336.248018  33092.734227  24991.771455    156.337749
PC08 -15736.047651  17246.152507 -35073.936000   -890.751860
PC09 -11599.545765  33163.581675  23294.863232    506.543254
PC10   3088.410373  39973.952154  13992.564535    -39.688018
PC11  19917.172590 -19096.966667   4086.113339    354.404748
PC12  23339.660596  -7679.001805 -13187.094590    874.377590
PC13  -1243.854605  22733.538754 -35373.933831    269.823195
PC14   9463.424991 -19025.508020  18086.690621    794.678898
PC16 -21225.690522  34119.527225  12526.386956   -851.295437
PC19  -3088.742247  25560.324941 -10762.545708    843.497063
PC20 -13308.080970  11300.063708 -21756.632529   -907.127801
PC21  16066.473193  10547.645667  20265.708422   -939.434536
PC22   9181.862902  25480.211337   6806.624655   -954.694110
PC23 -14846.442597 -17643.381845 -15710.737347   -913.142628
PC24  22537.616699  -3710.634776 -16023.867987   -859.866726
PC25   4352.344656 -15632.262940 -22707.442716   -913.429809
PC26  26533.270330   8524.598002  -1041.336425    903.781306
PC27 -20064.652243  -1036.870679  19336.653072    535.487096
PC28  -4923.696761 -15881.701681  22409.571718    -71.663737
PC29 -12231.422500  21858.628805 -12308.216755    395.444253
PC30 -22959.138756  14871.104598   5448.017767    467.841293
PC32 -16133.343145 -10407.468533 -20225.796526   -931.046217
PC33   3063.026023 -25508.831364  10876.675722   -937.381800
PC34  22868.500012 -15297.936279  -4760.828511   -668.189519
PC35   5214.170815  15952.593855 -22298.678160   -269.947853
PC36  -5137.414441  15383.026123  22734.505334   -726.504414
PC37 -26174.347314  -9700.573599    190.645969   -888.424892
PC38      0.000000      0.000000      0.000000 999999.999999
PC39 -17294.818345  35609.964909  14296.264429     31.245906
PC40  -2232.993643  37955.142528  18395.383036    163.265442
PC41  -9050.330702 -25587.804160  -6434.897916   -944.496512
PC42  13694.405547 -10451.661057  21997.878042   -914.389927
PC43  12765.088810 -21834.780478  11809.400893   -740.836491
PC44  20090.958903    612.102465 -19384.923999    199.758928
PC45  15001.374851  17520.178523  15701.541119    446.357469
PC46 -21911.736998   4378.370800  16743.669696    260.278971
PC60   7265.661342  41536.747817   -940.890367      0.386772
PE01 -18533.030395 -22954.513318  -2424.372407  -1112.714637
PE02  18600.317278  22901.909512   2299.072226    220.684584
PE03   8255.155851  20365.282475  19844.758515   -433.446536
PE04 -17578.285434   -383.074607 -23800.695664   -775.867165
PE05  -6059.551331  28676.432450   4167.045323   -279.133342
PE07  16702.425479 -20172.223628  13794.616078   -540.478937
PE08  17525.042882    -92.030567  23860.694364   5998.420292
PE09 -16457.033384  20451.950949 -13684.331402   5659.985278
PE11 -24727.056469  12522.716615 -10370.331121   5951.320501
PE12 -28149.391038    246.984953   9109.676129   5199.086172
PE13  24978.264421 -12367.811378   9981.838768    416.712139
PE14  20295.330508   4445.987571 -23709.042442  -1439.085828
PE15  28170.584840   -401.873636  -9092.531701    813.031359
PE18 -19473.578428   9082.346394  13734.208389  -1575.439828
PE19  -6610.279331 -22052.796706 -18593.445114    282.721750
PE21  -3834.548745 -22776.659689 -18514.347818   -666.226954
PE24 -14399.041443   8649.393452  24360.830760   -912.657509
PE25   3648.113067  22701.536721  18644.550112   -534.535364
PE26   6210.098955 -17132.496805  23326.555003   1783.753265
PE27  13703.100454  -9445.931019 -24475.429501    -37.412386
PE30  23168.955587  10275.157956 -15290.104470   2926.682443
PE31 -23074.414462  -9344.801485  16018.953241   -481.400671
PE33 -14760.329865 -11787.474619  22787.397698   -468.858316
PE36  -7068.406426  17031.328994 -23151.434123   -210.270037
PG01  11039.860992  13432.710506 -20441.075220    682.276484
PG02  14441.840944 -13993.278149  18031.483941   -606.148646
PG03  12412.883663  23446.629873  -2299.778644   -170.369619
PG04   3528.237845  19022.562527  18181.845523   -197.179715
PG05  -1382.927697 -21555.032762  15182.666503    -42.629880
PG06  23985.184449  -6730.234267   9359.862430     18.137367
PG07  23107.917249   7810.355744  11445.342856    157.355411
PG08  -3678.644404  23639.574132 -11208.651367    -22.093956
PG09  12479.376442   9144.069228  21531.066767   -346.866894
PG10 -17538.023310  -2699.879213 -19729.906818   -126.657048
PG12  -9339.623397 -24607.859577  -4348.993421    -44.271860
PG13  12495.203396 -22848.807638  -4969.654380    134.960602
PG14  17611.284877   3364.783931 -19615.735329     82.481888
PG15    364.999853 -23907.418061 -11542.225147   -147.790581
PG16  -4426.191239  18646.910884  17937.445224   -328.902886
PG17  18236.239285  -6924.863535 -17600.588320    446.097779
PG18 -24764.919353  -5470.730535   7991.718756    349.745157
PG19  19342.770277 -13927.455243 -11878.099350      3.095533
PG20  -9502.131377 -22863.444884   9922.836499    521.951103
PG21   2850.595679  14733.975012 -21222.488011    119.751705
PG22   6834.489392  23017.094407 -11367.725248   -608.436271
PG23 -19147.104077 -13270.984452 -12821.312575    104.656774
PG24  -5925.042431 -15192.115610 -21257.841091     91.451998
PG25 -17244.905150 -19128.257592   6779.410057    141.535128
PG26 -11170.203395  11136.292765  21287.008158     88.350079
PG27 -12031.429517  23435.681603  -1019.348100   -134.062882
PG29 -10943.347007 -10004.305792  21982.707917   -351.027321
PG30  26643.591888   -858.623567  -1260.612978   -429.098739
PG31 -22704.389713   8108.819439  11567.019074   -118.622884
PG32 -18326.892642   9641.390110 -16421.301886     20.737962
PJ01 -21540.738482  28799.017480 -17431.041676   -382.528264
PJ02 -25113.735445  22163.664450  30577.921046      0.013831
PJ03 -34931.684349  23480.041958   2301.454181     -6.022876
PJ07 -25393.393129  33655.685510     -9.676184     -0.009651
PR01  -6670.097526  20253.176644 -14006.326230     79.786816
PR02   2446.623710  24563.890571   6357.884691    479.507598
PR03   9336.363823  12746.968522  20057.141993     36.360801
PR04  10639.370172  -6011.647867  22423.326705     87.821705
PR05   6225.992331 -21484.108579  12296.183688     72.174253
PR07  -9431.596551 -12227.368608 -20272.931279    -42.444842
PR08 -10706.407344   6093.874282 -22272.842688    -59.111843
PR09 -11546.176890 -15921.272896 -16184.643961     -5.971762
PR11 -19829.946953  -2844.039348  15792.648052     -5.737516
PR12  -5788.327813   9326.231483  23050.839900    230.818575
PR13  11136.196312  15681.372475  16740.952221    -55.090828
PR14  21952.809798  13008.247487     38.345287     64.518953
PR15  19596.500748   2748.708830 -16078.172634    103.702411
PR16   4505.159056 -10255.028258 -22942.251887    -15.360911
PR17  15013.244565   2361.922564 -20472.447687    426.035303
PR18  22849.764480  -8528.883383  -7558.269453     77.332777
PR19  19382.702021 -14179.721198   8592.432959   -144.632550
PR20   2492.207315 -12320.194424  22206.537694    -49.518312
PR21 -15927.260921  -1508.647110  19869.855008   -210.681914
PR22 -22911.031846   8955.739844   6533.933100   -113.837345
PR24  -1331.310020  12465.879352 -22204.908506     43.554510
EOF
